satname,norad_id,inclination_deg,eccentricity,mean_motion_rev_per_day,perigee_km,apogee_km,l1,l2
STARLINK-1364,45589,53.0564,0.0001651,15.06389714,546.0997029744649,548.3864634779475,1 45589U 20025BL  25340.60457351 -.00000355  00000+0 -49196-5 0  9993,2 45589  53.0564 134.4986 0001651 110.3466 249.7700 15.06389714311474
STARLINK-1365,45590,53.0552,0.0001819,15.06405287,545.9356361369273,548.4550720473462,1 45590U 20025BM  25339.82406594  .00000960  00000+0  83361-4 0  9991,2 45590  53.0552 167.9958 0001819 103.0703 257.0489 15.06405287310954
STARLINK-1443,45660,53.0558,0.0001409,15.06395864,546.2484508136877,548.2000176094889,1 45660U 20035D   25340.67185373  .00002192  00000+0  16599-3 0  9991,2 45660  53.0558 124.1914 0001409  88.5320 271.5830 15.06395864304719
STARLINK-1446,45663,53.0266,0.0001004,15.36838571,454.77878522144147,456.1509724787147,1 45663U 20035G   25339.99817231  .00022950  00000+0  63681-3 0  9990,2 45663  53.0266  82.8011 0001004 347.2358  12.8618 15.36838571305231
STARLINK-1448,45665,53.056,0.0001422,15.06393384,546.2470476512608,548.2166225479632,1 45665U 20035J   25340.60917972  .00000780  00000+0  71291-4 0  9999,2 45665  53.0560 124.4706 0001422  84.8090 275.3061 15.06393384304697
STARLINK-1451,45668,53.0546,0.0001437,15.06399103,546.219134132617,548.2094800982823,1 45668U 20035M   25340.41386551  .00001961  00000+0  15048-3 0  9993,2 45668  53.0546 125.6662 0001437  91.5348 268.5806 15.06399103304679
STARLINK-1452,45669,53.0395,0.0007993,15.30687505,468.28313254720615,479.23657485753483,1 45669U 20035N   25340.65382091  .00019081  00000+0  64445-3 0  9992,2 45669  53.0395  99.8937 0007993 134.3733 225.7922 15.30687505305056
STARLINK-1453,45670,53.0581,0.0001586,15.12616034,527.130231669913,529.3209298805341,1 45670U 20035P   25340.61842806  .00022217  00000+0  12704-2 0  9990,2 45670  53.0581  93.6909 0001586  91.1939 268.9235 15.12616034305028
STARLINK-1454,45671,53.0545,0.0001374,15.06425433,546.1820783710837,548.0851427348643,1 45671U 20035Q   25340.63496388  .00010641  00000+0  73166-3 0  9991,2 45671  53.0545 124.3647 0001374  79.6785 280.4359 15.06425433304697
STARLINK-1456,45673,53.0565,0.0001288,15.06383587,546.3698705027018,548.1538532495206,1 45673U 20035S   25340.64972507 -.00000043  00000+0  15984-4 0  9997,2 45673  53.0565 124.2961 0001288  96.4476 263.6660 15.06383587304711
STARLINK-1457,45674,53.0527,0.0002757,15.46233781,425.87887713067994,429.6316461237411,1 45674U 20035T   25340.63629375  .00038335  00000+0  77189-3 0  9997,2 45674  53.0527 117.0869 0002757 298.3946  61.6782 15.46233781304786
STARLINK-1458,45675,53.0547,0.0001111,15.06395127,546.4570851376229,547.9959009057729,1 45675U 20035U   25340.64603964  .00003121  00000+0  22832-3 0  9995,2 45675  53.0547 124.3055 0001111  95.1754 264.9362 15.06395127304679
STARLINK-1460,45676,53.0549,0.000138,15.06390545,546.2848342030675,548.1962384030876,1 45676U 20035V   25340.61654597 -.00000783  00000+0 -33714-4 0  9996,2 45676  53.0549 124.4406 0001380  81.4576 278.6569 15.06390545304660
STARLINK-1392,45677,53.0557,0.0001153,15.06433187,546.3113654689969,547.908327391784,1 45677U 20035W   25340.62756816  .00004788  00000+0  33981-3 0  9997,2 45677  53.0557 124.3939 0001153  72.2868 287.8247 15.06433187304700
STARLINK-1394,45679,53.0539,0.0001242,15.06395913,546.363954186324,548.0842138795979,1 45679U 20035Y   25340.62484673 -.00002795  00000+0 -16884-3 0  9999,2 45679  53.0539 114.4023 0001242  79.5403 280.5726 15.06395913304841
STARLINK-1402,45685,53.0524,0.0003174,15.30679554,471.6087818650585,475.9583810501681,1 45685U 20035AE  25340.62645442  .00014907  00000+0  50684-3 0  9991,2 45685  53.0524 101.5058 0003174 249.0709 110.9951 15.30679554305037
STARLINK-1404,45686,53.0538,0.0001333,15.06393657,546.3078468337471,548.1541499421164,1 45686U 20035AF  25340.65064465  .00000488  00000+0  51655-4 0  9994,2 45686  53.0538 114.2892 0001333  92.7270 267.3871 15.06393657304858
STARLINK-1413,45689,53.0552,0.0001207,15.06402005,546.3695240796287,548.0413017381052,1 45689U 20035AJ  25340.66907132 -.00000279  00000+0  15804-6 0  9992,2 45689  53.0552 114.2032 0001207  91.7410 268.3718 15.06402005304767
STARLINK-1417,45693,53.0529,1.71e-05,15.07206423,544.6227084404482,544.8594708711144,1 45693U 20035AN  25340.59392825  .00007458  00000+0  50794-3 0  9995,2 45693  53.0529 114.4890 0000171  37.0991 323.0011 15.07206423304836
STARLINK-1420,45695,53.0542,0.0001424,15.06400762,546.2230532169233,548.1953918210975,1 45695U 20035AQ  25340.59993825  .00010924  00000+0  75110-3 0  9995,2 45695  53.0542  94.5037 0001424  83.2160 276.8991 15.06400762305123
STARLINK-1422,45696,53.0566,0.0001397,15.06388897,546.2781112957273,548.213063190603,1 45696U 20035AR  25340.61010193 -.00000520  00000+0 -15993-4 0  9994,2 45696  53.0566 114.4728 0001397  89.6710 270.4439 15.06388897304837
STARLINK-1351,45697,53.0553,0.000131,15.06393992,546.3227485808802,548.1371947274538,1 45697U 20035AS  25340.58614550 -.00000252  00000+0  19805-5 0  9996,2 45697  53.0553  94.5800 0001310  92.2558 267.8581 15.06393992305121
STARLINK-1398,45699,53.0489,0.0001371,15.57165752,394.9356378642524,396.7930690353678,1 45699U 20035AU  25340.45052408  .00074703  00000+0  10073-2 0  9998,2 45699  53.0489  42.5194 0001371 280.9905  79.0951 15.57165752305849
STARLINK-1400,45700,53.0543,0.0001311,15.0640175,546.2982819527233,548.1141069383066,1 45700U 20035AV  25340.62668484  .00001076  00000+0  91090-4 0  9990,2 45700  53.0543  94.3939 0001311  93.2793 266.8346 15.06401750305129
STARLINK-1403,45701,53.0552,0.0001451,15.06389727,546.2381707383302,548.2479160269186,1 45701U 20035AW  25340.58983532 -.00000987  00000+0 -47388-4 0  9993,2 45701  53.0552  94.5609 0001451  90.1473 269.9682 15.06389727305117
STARLINK-1407,45703,53.0417,0.0009025,15.4486573,425.6266830995528,437.91856997545347,1 45703U 20035AY  25340.16726206  .00029280  00000+0  61983-3 0  9993,2 45703  53.0417  45.6897 0009025 167.0822 193.0416 15.44865730305771
STARLINK-1411,45706,53.0521,0.0002694,15.45700319,427.48717112433405,431.15502954879594,1 45706U 20035BB  25340.63317234  .00104729  00000+0  21143-2 0  9990,2 45706  53.0521  70.6965 0002694   0.8301 359.2709 15.45700319305453
STARLINK-1423,45710,53.0542,0.0001155,15.06401454,546.4072243975361,548.0069788850151,1 45710U 20035BF  25340.54928982 -.00000509  00000+0 -15304-4 0  9990,2 45710  53.0542  94.7430 0001155  75.9713 284.1404 15.06401454305112
STARLINK-1433,45711,53.0547,0.0001475,15.06398858,546.1935685774552,548.2365474345661,1 45711U 20035BG  25340.59719761  .00002164  00000+0  16414-3 0  9998,2 45711  53.0547  94.5267 0001475  70.5756 289.5393 15.06398858305116
STARLINK-1434,45712,53.0517,0.0003768,15.17963506,509.40004757230054,514.5924519893342,1 45712U 20035BH  25340.57979783  .00019902  00000+0  98053-3 0  9996,2 45712  53.0517  88.1643 0003768 171.6460 188.4598 15.17963506305218
STARLINK-1465,45731,53.0549,0.000142,15.06404625,546.2139855332789,548.1807804980554,1 45731U 20038B   25340.29864106  .00002828  00000+0  20864-3 0  9995,2 45731  53.0549 295.8636 0001420  86.5011 273.6141 15.06404625302119
STARLINK-1471,45735,53.0491,0.0001592,15.4282739,436.68425453700456,438.85443911783386,1 45735U 20038F   25340.39925575  .00031128  00000+0  70588-3 0  9991,2 45735  53.0491 226.6995 0001592 104.4507 255.6674 15.42827390303108
STARLINK-1474,45738,53.0319,0.0002774,15.74180744,345.09793765815357,348.82902340475266,1 45738U 20038J   25340.00003472  .00135580  00000+0  91530-3 0  9992,2 45738  53.0319 178.5169 0002774 118.6131  19.8235 15.74180744  5967
STARLINK-1475,45739,53.0375,0.0004059,16.07723871,250.40306058623992,255.78629446205377,1 45739U 20038K   25340.67552051  .00799659  34893-3  96162-3 0  9998,2 45739  53.0375 136.5386 0004059 308.8402  51.2268 16.07723871304393
STARLINK-1480,45741,53.0546,0.0001656,15.0641798,546.0096237802627,548.3032809716906,1 45741U 20038M   25340.61194639  .00014778  00000+0  10084-2 0  9998,2 45741  53.0546 294.4569 0001656  77.7068 282.4106 15.06417980302175
STARLINK-1500,45744,53.0409,0.0002023,15.29576229,475.691360070854,478.46498012867596,1 45744U 20038Q   25340.52582501  .00035871  00000+0  12409-2 0  9990,2 45744  53.0409 267.9866 0002023  32.7221 327.3903 15.29576229302533
STARLINK-1504,45746,53.0267,0.0003387,15.43770684,432.68496365851206,437.300177629666,1 45746U 20038S   25340.41151432  .00033213  00000+0  72880-3 0  9993,2 45746  53.0267 229.6139 0003387  73.1144 287.0232 15.43770684303054
STARLINK-1506,45747,53.0674,0.0002668,15.22824871,495.49032767278277,499.1590740363581,1 45747U 20038T   25340.24236619  .00014894  00000+0  64129-3 0  9997,2 45747  53.0674 273.5422 0002668  20.7898 339.3207 15.22824871302434
STARLINK-1464,45751,53.0539,0.0001478,15.06420864,546.1240564554037,548.1711705871603,1 45751U 20038X   25340.54742206  .00001633  00000+0  12845-3 0  9994,2 45751  53.0539 274.7499 0001478 106.1450 253.9702 15.06420864302445
STARLINK-1477,45754,53.0539,0.0006036,15.08721993,535.9282623284698,544.279962999678,1 45754U 20038AA  25340.53012514  .00007077  00000+0  46369-3 0  9994,2 45754  53.0539 274.4875 0006036  80.0972 280.0700 15.08721993302445
STARLINK-1478,45755,53.0535,0.0001115,15.06403736,546.4279325725201,547.9722827475289,1 45755U 20038AB  25340.51427150  .00009141  00000+0  63171-3 0  9993,2 45755  53.0535 274.8973 0001115  79.4638 280.6477 15.06403736302424
STARLINK-1484,45756,53.0122,0.0002178,15.68470011,361.80918172533165,364.74574186488917,1 45756U 20038AC  25340.54415542  .00107182  00000+0  92394-3 0  9992,2 45756  53.0122 165.2844 0002178 146.6229 213.4924 15.68470011303969
STARLINK-1493,45759,53.055,0.0001656,15.06427115,545.9816316556289,548.2752795745291,1 45759U 20038AF  25340.23782319  .00026469  00000+0  17879-2 0  9992,2 45759  53.0550 276.1373 0001656  77.4423 282.6751 15.06427115302383
